start=new Date('2021-12-08T00:00:00.000Z').valueOf();
sats=[{"FILE":"3235143","APOAPSIS":"548.726","TLE_LINE2":"2 46537  53.0538 308.5265 0002148  51.3864 308.7317 15.06392018 65423","CENTER_NAME":"EARTH","LAUNCH_DATE":"2020-10-06","MEAN_MOTION_DDOT":"0.0000000000000","EPHEMERIS_TYPE":"0","OBJECT_NAME":"STARLINK-1672","MEAN_ANOMALY":"308.7317","OBJECT_ID":"2020-070F","REV_AT_EPOCH":"6542","TIME_SYSTEM":"UTC","RA_OF_ASC_NODE":"308.5265","EPOCH":"2021-12-07T15:25:31.490112","SITE":"AFETR","RCS_SIZE":"LARGE","DECAY_DATE":null,"REF_FRAME":"TEME","MEAN_ELEMENT_THEORY":"SGP4","COUNTRY_CODE":"US","MEAN_MOTION":"15.06392018","INCLINATION":"53.0538","BSTAR":"-0.00000681340000","ARG_OF_PERICENTER":"51.3864","PERIAPSIS":"545.750","MEAN_MOTION_DOT":"-0.00000383","CLASSIFICATION_TYPE":"U","PERIOD":"95.593","GP_ID":"191299674","ELEMENT_SET_NO":"999","NORAD_CAT_ID":"46537","TLE_LINE1":"1 46537U 20070F   21341.64272558 -.00000383  00000-0 -68134-5 0  9997","ECCENTRICITY":"0.00021480","SEMIMAJOR_AXIS":"6925.373","OBJECT_TYPE":"PAYLOAD"},{"PERIAPSIS":"545.967","MEAN_MOTION_DOT":"-0.00000694","CLASSIFICATION_TYPE":"U","PERIOD":"95.593","MEAN_MOTION":"15.06392447","INCLINATION":"53.0546","BSTAR":"-0.00002771500000","ARG_OF_PERICENTER":"57.2228","OBJECT_TYPE":"PAYLOAD","GP_ID":"191298422","ELEMENT_SET_NO":"999","NORAD_CAT_ID":"46538","ECCENTRICITY":"0.00018330","TLE_LINE1":"1 46538U 20070G   21341.88600107 -.00000694  00000-0 -27715-4 0  9993","SEMIMAJOR_AXIS":"6925.372","MEAN_MOTION_DDOT":"0.0000000000000","EPHEMERIS_TYPE":"0","FILE":"3235143","TLE_LINE2":"2 46538  53.0546 307.4297 0001833  57.2228 302.8937 15.06392447 65457","APOAPSIS":"548.506","CENTER_NAME":"EARTH","LAUNCH_DATE":"2020-10-06","SITE":"AFETR","RCS_SIZE":"LARGE","DECAY_DATE":null,"REF_FRAME":"TEME","MEAN_ELEMENT_THEORY":"SGP4","COUNTRY_CODE":"US","OBJECT_NAME":"STARLINK-1678","MEAN_ANOMALY":"302.8937","OBJECT_ID":"2020-070G","TIME_SYSTEM":"UTC","REV_AT_EPOCH":"6545","RA_OF_ASC_NODE":"307.4297","EPOCH":"2021-12-07T21:15:50.492448"},{"SITE":"AFETR","DECAY_DATE":null,"RCS_SIZE":"LARGE","MEAN_ELEMENT_THEORY":"SGP4","REF_FRAME":"TEME","COUNTRY_CODE":"US","OBJECT_NAME":"STARLINK-1684","OBJECT_ID":"2020-070H","MEAN_ANOMALY":"308.8251","RA_OF_ASC_NODE":"306.3895","TIME_SYSTEM":"UTC","REV_AT_EPOCH":"6548","EPOCH":"2021-12-07T22:24:26.108064","MEAN_MOTION_DDOT":"0.0000000000000","EPHEMERIS_TYPE":"0","FILE":"3235143","CENTER_NAME":"EARTH","TLE_LINE2":"2 46539  53.0551 306.3895 0001385  51.2867 308.8251 15.18854286 65486","APOAPSIS":"510.258","LAUNCH_DATE":"2020-10-06","OBJECT_TYPE":"PAYLOAD","ELEMENT_SET_NO":"999","GP_ID":"191299173","NORAD_CAT_ID":"46539","SEMIMAJOR_AXIS":"6887.439","TLE_LINE1":"1 46539U 20070H   21341.93363551  .00075942  00000-0  35773-2 0  9996","ECCENTRICITY":"0.00013850","PERIAPSIS":"508.350","CLASSIFICATION_TYPE":"U","PERIOD":"94.808","MEAN_MOTION_DOT":"0.00075942","MEAN_MOTION":"15.18854286","INCLINATION":"53.0551","BSTAR":"0.00357730000000","ARG_OF_PERICENTER":"51.2867"},{"PERIAPSIS":"545.733","MEAN_MOTION_DOT":"0.00000176","CLASSIFICATION_TYPE":"U","PERIOD":"95.593","MEAN_MOTION":"15.06394248","INCLINATION":"53.0549","BSTAR":"0.00003073200000","ARG_OF_PERICENTER":"60.1027","OBJECT_TYPE":"PAYLOAD","GP_ID":"191299421","ELEMENT_SET_NO":"999","NORAD_CAT_ID":"46541","ECCENTRICITY":"0.00021640","TLE_LINE1":"1 46541U 20070K   21341.60033795  .00000176  00000-0  30732-4 0  9996","SEMIMAJOR_AXIS":"6925.366","MEAN_MOTION_DDOT":"0.0000000000000","EPHEMERIS_TYPE":"0","FILE":"3235143","TLE_LINE2":"2 46541  53.0549 288.6979 0002164  60.1027 300.0177 15.06394248 65692","APOAPSIS":"548.730","CENTER_NAME":"EARTH","LAUNCH_DATE":"2020-10-06","SITE":"AFETR","DECAY_DATE":null,"RCS_SIZE":"LARGE","REF_FRAME":"TEME","MEAN_ELEMENT_THEORY":"SGP4","COUNTRY_CODE":"US","OBJECT_NAME":"STARLINK-1687","MEAN_ANOMALY":"300.0177","OBJECT_ID":"2020-070K","TIME_SYSTEM":"UTC","REV_AT_EPOCH":"6569","RA_OF_ASC_NODE":"288.6979","EPOCH":"2021-12-07T14:24:29.198880"},{"PERIAPSIS":"545.785","CLASSIFICATION_TYPE":"U","PERIOD":"95.592","MEAN_MOTION_DOT":"-0.00000143","MEAN_MOTION":"15.06396872","INCLINATION":"53.0549","BSTAR":"0.00000934720000","ARG_OF_PERICENTER":"59.5916","OBJECT_TYPE":"PAYLOAD","ELEMENT_SET_NO":"999","GP_ID":"191300175","NORAD_CAT_ID":"46542","SEMIMAJOR_AXIS":"6925.358","ECCENTRICITY":"0.00020760","TLE_LINE1":"1 46542U 20070L   21341.93391123 -.00000143  00000-0  93472-5 0  9991","MEAN_MOTION_DDOT":"0.0000000000000","EPHEMERIS_TYPE":"0","FILE":"3235143","CENTER_NAME":"EARTH","APOAPSIS":"548.661","TLE_LINE2":"2 46542  53.0549 307.2155 0002076  59.5916 300.5278 15.06396872 65465","LAUNCH_DATE":"2020-10-06","SITE":"AFETR","DECAY_DATE":null,"RCS_SIZE":"LARGE","MEAN_ELEMENT_THEORY":"SGP4","REF_FRAME":"TEME","COUNTRY_CODE":"US","OBJECT_NAME":"STARLINK-1692","OBJECT_ID":"2020-070L","MEAN_ANOMALY":"300.5278","RA_OF_ASC_NODE":"307.2155","TIME_SYSTEM":"UTC","REV_AT_EPOCH":"6546","EPOCH":"2021-12-07T22:24:49.930272"},{"OBJECT_NAME":"STARLINK-1693","OBJECT_ID":"2020-070M","MEAN_ANOMALY":"297.7684","RA_OF_ASC_NODE":"308.4631","REV_AT_EPOCH":"6542","TIME_SYSTEM":"UTC","EPOCH":"2021-12-07T15:41:25.973376","SITE":"AFETR","RCS_SIZE":"LARGE","DECAY_DATE":null,"MEAN_ELEMENT_THEORY":"SGP4","REF_FRAME":"TEME","COUNTRY_CODE":"US","FILE":"3235143","CENTER_NAME":"EARTH","APOAPSIS":"548.513","TLE_LINE2":"2 46543  53.0549 308.4631 0001899  62.3497 297.7684 15.06404988 65428","LAUNCH_DATE":"2020-10-06","MEAN_MOTION_DDOT":"0.0000000000000","EPHEMERIS_TYPE":"0","ELEMENT_SET_NO":"999","GP_ID":"191298923","NORAD_CAT_ID":"46543","SEMIMAJOR_AXIS":"6925.333","TLE_LINE1":"1 46543U 20070M   21341.65377284  .00000179  00000-0  30896-4 0  9991","ECCENTRICITY":"0.00018990","OBJECT_TYPE":"PAYLOAD","MEAN_MOTION":"15.06404988","INCLINATION":"53.0549","BSTAR":"0.00003089600000","ARG_OF_PERICENTER":"62.3497","PERIAPSIS":"545.883","PERIOD":"95.592","CLASSIFICATION_TYPE":"U","MEAN_MOTION_DOT":"0.00000179"},{"ELEMENT_SET_NO":"999","GP_ID":"191270458","NORAD_CAT_ID":"46544","SEMIMAJOR_AXIS":"6925.350","ECCENTRICITY":"0.00017920","TLE_LINE1":"1 46544U 20070N   21341.25155045 -.00000108  00000-0  11636-4 0  9991","OBJECT_TYPE":"PAYLOAD","MEAN_MOTION":"15.06399606","INCLINATION":"53.0564","BSTAR":"0.00001163600000","ARG_OF_PERICENTER":"63.3768","PERIAPSIS":"545.974","CLASSIFICATION_TYPE":"U","PERIOD":"95.592","MEAN_MOTION_DOT":"-0.00000108","OBJECT_NAME":"STARLINK-1694","OBJECT_ID":"2020-070N","MEAN_ANOMALY":"296.7404","RA_OF_ASC_NODE":"295.2740","REV_AT_EPOCH":"6557","TIME_SYSTEM":"UTC","EPOCH":"2021-12-07T06:02:13.958880","SITE":"AFETR","DECAY_DATE":null,"RCS_SIZE":"LARGE","MEAN_ELEMENT_THEORY":"SGP4","REF_FRAME":"TEME","COUNTRY_CODE":"US","FILE":"3234816","CENTER_NAME":"EARTH","TLE_LINE2":"2 46544  53.0564 295.2740 0001792  63.3768 296.7404 15.06399606 65579","APOAPSIS":"548.456","LAUNCH_DATE":"2020-10-06","MEAN_MOTION_DDOT":"0.0000000000000","EPHEMERIS_TYPE":"0"},{"MEAN_MOTION_DDOT":"0.0000000000000","EPHEMERIS_TYPE":"0","FILE":"3235143","CENTER_NAME":"EARTH","TLE_LINE2":"2 46545  53.0555 307.4183 0001948  59.3948 300.7233 15.06395992 65452","APOAPSIS":"548.575","LAUNCH_DATE":"2020-10-06","SITE":"AFETR","DECAY_DATE":null,"RCS_SIZE":"LARGE","MEAN_ELEMENT_THEORY":"SGP4","REF_FRAME":"TEME","COUNTRY_CODE":"US","OBJECT_NAME":"STARLINK-1696","OBJECT_ID":"2020-070P","MEAN_ANOMALY":"300.7233","RA_OF_ASC_NODE":"307.4183","REV_AT_EPOCH":"6545","TIME_SYSTEM":"UTC","EPOCH":"2021-12-07T21:21:08.616384","PERIAPSIS":"545.877","PERIOD":"95.592","CLASSIFICATION_TYPE":"U","MEAN_MOTION_DOT":"0.00002135","MEAN_MOTION":"15.06395992","INCLINATION":"53.0555","BSTAR":"0.00016222000000","ARG_OF_PERICENTER":"59.3948","OBJECT_TYPE":"PAYLOAD","ELEMENT_SET_NO":"999","GP_ID":"191299922","NORAD_CAT_ID":"46545","SEMIMAJOR_AXIS":"6925.361","TLE_LINE1":"1 46545U 20070P   21341.88968306  .00002135  00000-0  16222-3 0  9999","ECCENTRICITY":"0.00019480"},{"CENTER_NAME":"EARTH","APOAPSIS":"548.634","TLE_LINE2":"2 46546  53.0546 308.6628 0001984  55.6467 304.4709 15.06384871 65414","FILE":"3235143","LAUNCH_DATE":"2020-10-06","EPHEMERIS_TYPE":"0","MEAN_MOTION_DDOT":"0.0000000000000","OBJECT_ID":"2020-070Q","MEAN_ANOMALY":"304.4709","OBJECT_NAME":"STARLINK-1697","EPOCH":"2021-12-07T14:37:45.512256","RA_OF_ASC_NODE":"308.6628","TIME_SYSTEM":"UTC","REV_AT_EPOCH":"6541","RCS_SIZE":"LARGE","DECAY_DATE":null,"SITE":"AFETR","COUNTRY_CODE":"US","MEAN_ELEMENT_THEORY":"SGP4","REF_FRAME":"TEME","INCLINATION":"53.0546","MEAN_MOTION":"15.06384871","ARG_OF_PERICENTER":"55.6467","BSTAR":"0.00001245500000","PERIAPSIS":"545.886","CLASSIFICATION_TYPE":"U","PERIOD":"95.593","MEAN_MOTION_DOT":"-0.00000096","ELEMENT_SET_NO":"999","GP_ID":"191299675","SEMIMAJOR_AXIS":"6925.395","ECCENTRICITY":"0.00019840","TLE_LINE1":"1 46546U 20070Q   21341.60955454 -.00000096  00000-0  12455-4 0  9990","NORAD_CAT_ID":"46546","OBJECT_TYPE":"PAYLOAD"},{"LAUNCH_DATE":"2020-10-06","CENTER_NAME":"EARTH","TLE_LINE2":"2 46547  53.0550 307.3450 0001737  63.7212 296.3955 15.06394381 65467","APOAPSIS":"548.434","FILE":"3235143","EPHEMERIS_TYPE":"0","MEAN_MOTION_DDOT":"0.0000000000000","EPOCH":"2021-12-07T21:42:22.496256","RA_OF_ASC_NODE":"307.3450","REV_AT_EPOCH":"6546","TIME_SYSTEM":"UTC","OBJECT_ID":"2020-070R","MEAN_ANOMALY":"296.3955","OBJECT_NAME":"STARLINK-1698","COUNTRY_CODE":"US","MEAN_ELEMENT_THEORY":"SGP4","REF_FRAME":"TEME","RCS_SIZE":"LARGE","DECAY_DATE":null,"SITE":"AFETR","ARG_OF_PERICENTER":"63.7212","BSTAR":"-0.00001081100000","INCLINATION":"53.0550","MEAN_MOTION":"15.06394381","PERIOD":"95.592","CLASSIFICATION_TYPE":"U","MEAN_MOTION_DOT":"-0.00000443","PERIAPSIS":"546.028","SEMIMAJOR_AXIS":"6925.366","ECCENTRICITY":"0.00017370","TLE_LINE1":"1 46547U 20070R   21341.90442704 -.00000443  00000-0 -10811-4 0  9994","NORAD_CAT_ID":"46547","ELEMENT_SET_NO":"999","GP_ID":"191298423","OBJECT_TYPE":"PAYLOAD"}];
